GSAT0203 (GALILEO 7)    
1 40544U 15017A   24225.22792836 -.00000083  00000+0  00000+0 0  9995
2 40544  56.9232 359.9466 0002858 233.4427 126.5368  1.70476293 57716
IRNSS-1C                
1 40269U 14061A   24225.89619917 -.00000155  00000+0  00000+0 0  9998
2 40269   4.8082 103.3407 0020935  11.6414 252.4682  1.00273876 35932
COSMOS 2501 (702K)      
1 40315U 14075A   24224.50574791  .00000096  00000+0  00000+0 0  9995
2 40315  63.6230 213.7523 0020992 211.5290 148.3545  2.13101532 75471
GPS BIIF-8  (PRN 03)    
1 40294U 14068A   24225.84609108 -.00000031  00000+0  00000+0 0  9992
2 40294  56.4699  57.0308 0055097  64.4519 296.1756  2.00563579 71706
GPS BIIF-9  (PRN 26)    
1 40534U 15013A   24225.47719027  .00000084  00000+0  00000+0 0  9998
2 40534  53.3278 232.0638 0089274  29.9493 330.5889  2.00562228 68317
