<?xml version="1.0" encoding="UTF-8"?>
<ndm xmlns:xsi="http://www.w3.org/2001/XMLSchema-instance"
    xsi:noNamespaceSchemaLocation="https://sanaregistry.org/r/ndmxml_unqualified/ndmxml-2.0.0-master-2.0.xsd">
    <omm id="CCSDS_OMM_VERS" version="2.0">
        <header>
            <CREATION_DATE />
            <ORIGINATOR />
        </header>
        <body>
            <segment>
                <metadata>
                    <OBJECT_NAME>IRNSS-1C</OBJECT_NAME>
                    <OBJECT_ID>2014-061A</OBJECT_ID>
                    <CENTER_NAME>EARTH</CENTER_NAME>
                    <REF_FRAME>TEME</REF_FRAME>
                    <TIME_SYSTEM>UTC</TIME_SYSTEM>
                    <MEAN_ELEMENT_THEORY>SGP4</MEAN_ELEMENT_THEORY>
                </metadata>
                <data>
                    <meanElements>
                        <EPOCH>2024-08-12T21:30:31.608288</EPOCH>
                        <MEAN_MOTION>1.00273876</MEAN_MOTION>
                        <ECCENTRICITY>.0020935</ECCENTRICITY>
                        <INCLINATION>4.8082</INCLINATION>
                        <RA_OF_ASC_NODE>103.3407</RA_OF_ASC_NODE>
                        <ARG_OF_PERICENTER>11.6414</ARG_OF_PERICENTER>
                        <MEAN_ANOMALY>252.4682</MEAN_ANOMALY>
                    </meanElements>
                    <tleParameters>
                        <EPHEMERIS_TYPE>0</EPHEMERIS_TYPE>
                        <CLASSIFICATION_TYPE>U</CLASSIFICATION_TYPE>
                        <NORAD_CAT_ID>40269</NORAD_CAT_ID>
                        <ELEMENT_SET_NO>999</ELEMENT_SET_NO>
                        <REV_AT_EPOCH>3593</REV_AT_EPOCH>
                        <BSTAR>0</BSTAR>
                        <MEAN_MOTION_DOT>-.155E-5</MEAN_MOTION_DOT>
                        <MEAN_MOTION_DDOT>0</MEAN_MOTION_DDOT>
                    </tleParameters>
                </data>
            </segment>
        </body>
    </omm>
    <omm id="CCSDS_OMM_VERS" version="2.0">
        <header>
            <CREATION_DATE />
            <ORIGINATOR />
        </header>
        <body>
            <segment>
                <metadata>
                    <OBJECT_NAME>GPS BIIF-8  (PRN 03)</OBJECT_NAME>
                    <OBJECT_ID>2014-068A</OBJECT_ID>
                    <CENTER_NAME>EARTH</CENTER_NAME>
                    <REF_FRAME>TEME</REF_FRAME>
                    <TIME_SYSTEM>UTC</TIME_SYSTEM>
                    <MEAN_ELEMENT_THEORY>SGP4</MEAN_ELEMENT_THEORY>
                </metadata>
                <data>
                    <meanElements>
                        <EPOCH>2024-08-12T20:18:22.269312</EPOCH>
                        <MEAN_MOTION>2.00563579</MEAN_MOTION>
                        <ECCENTRICITY>.0055097</ECCENTRICITY>
                        <INCLINATION>56.4699</INCLINATION>
                        <RA_OF_ASC_NODE>57.0308</RA_OF_ASC_NODE>
                        <ARG_OF_PERICENTER>64.4519</ARG_OF_PERICENTER>
                        <MEAN_ANOMALY>296.1756</MEAN_ANOMALY>
                    </meanElements>
                    <tleParameters>
                        <EPHEMERIS_TYPE>0</EPHEMERIS_TYPE>
                        <CLASSIFICATION_TYPE>U</CLASSIFICATION_TYPE>
                        <NORAD_CAT_ID>40294</NORAD_CAT_ID>
                        <ELEMENT_SET_NO>999</ELEMENT_SET_NO>
                        <REV_AT_EPOCH>7170</REV_AT_EPOCH>
                        <BSTAR>0</BSTAR>
                        <MEAN_MOTION_DOT>-.31E-6</MEAN_MOTION_DOT>
                        <MEAN_MOTION_DDOT>0</MEAN_MOTION_DDOT>
                    </tleParameters>
                </data>
            </segment>
        </body>
    </omm>
    <omm id="CCSDS_OMM_VERS" version="2.0">
        <header>
            <CREATION_DATE />
            <ORIGINATOR />
        </header>
        <body>
            <segment>
                <metadata>
                    <OBJECT_NAME>COSMOS 2501 (702K)</OBJECT_NAME>
                    <OBJECT_ID>2014-075A</OBJECT_ID>
                    <CENTER_NAME>EARTH</CENTER_NAME>
                    <REF_FRAME>TEME</REF_FRAME>
                    <TIME_SYSTEM>UTC</TIME_SYSTEM>
                    <MEAN_ELEMENT_THEORY>SGP4</MEAN_ELEMENT_THEORY>
                </metadata>
                <data>
                    <meanElements>
                        <EPOCH>2024-08-11T12:08:16.619424</EPOCH>
                        <MEAN_MOTION>2.13101532</MEAN_MOTION>
                        <ECCENTRICITY>.0020992</ECCENTRICITY>
                        <INCLINATION>63.6230</INCLINATION>
                        <RA_OF_ASC_NODE>213.7523</RA_OF_ASC_NODE>
                        <ARG_OF_PERICENTER>211.5290</ARG_OF_PERICENTER>
                        <MEAN_ANOMALY>148.3545</MEAN_ANOMALY>
                    </meanElements>
                    <tleParameters>
                        <EPHEMERIS_TYPE>0</EPHEMERIS_TYPE>
                        <CLASSIFICATION_TYPE>U</CLASSIFICATION_TYPE>
                        <NORAD_CAT_ID>40315</NORAD_CAT_ID>
                        <ELEMENT_SET_NO>999</ELEMENT_SET_NO>
                        <REV_AT_EPOCH>7547</REV_AT_EPOCH>
                        <BSTAR>0</BSTAR>
                        <MEAN_MOTION_DOT>.96E-6</MEAN_MOTION_DOT>
                        <MEAN_MOTION_DDOT>0</MEAN_MOTION_DDOT>
                    </tleParameters>
                </data>
            </segment>
        </body>
    </omm>
    <omm id="CCSDS_OMM_VERS" version="2.0">
        <header>
            <CREATION_DATE />
            <ORIGINATOR />
        </header>
        <body>
            <segment>
                <metadata>
                    <OBJECT_NAME>GPS BIIF-9  (PRN 26)</OBJECT_NAME>
                    <OBJECT_ID>2015-013A</OBJECT_ID>
                    <CENTER_NAME>EARTH</CENTER_NAME>
                    <REF_FRAME>TEME</REF_FRAME>
                    <TIME_SYSTEM>UTC</TIME_SYSTEM>
                    <MEAN_ELEMENT_THEORY>SGP4</MEAN_ELEMENT_THEORY>
                </metadata>
                <data>
                    <meanElements>
                        <EPOCH>2024-08-12T11:27:09.239328</EPOCH>
                        <MEAN_MOTION>2.00562228</MEAN_MOTION>
                        <ECCENTRICITY>.0089274</ECCENTRICITY>
                        <INCLINATION>53.3278</INCLINATION>
                        <RA_OF_ASC_NODE>232.0638</RA_OF_ASC_NODE>
                        <ARG_OF_PERICENTER>29.9493</ARG_OF_PERICENTER>
                        <MEAN_ANOMALY>330.5889</MEAN_ANOMALY>
                    </meanElements>
                    <tleParameters>
                        <EPHEMERIS_TYPE>0</EPHEMERIS_TYPE>
                        <CLASSIFICATION_TYPE>U</CLASSIFICATION_TYPE>
                        <NORAD_CAT_ID>40534</NORAD_CAT_ID>
                        <ELEMENT_SET_NO>999</ELEMENT_SET_NO>
                        <REV_AT_EPOCH>6831</REV_AT_EPOCH>
                        <BSTAR>0</BSTAR>
                        <MEAN_MOTION_DOT>.84E-6</MEAN_MOTION_DOT>
                        <MEAN_MOTION_DDOT>0</MEAN_MOTION_DDOT>
                    </tleParameters>
                </data>
            </segment>
        </body>
    </omm>
    <omm id="CCSDS_OMM_VERS" version="2.0">
        <header>
            <CREATION_DATE />
            <ORIGINATOR />
        </header>
        <body>
            <segment>
                <metadata>
                    <OBJECT_NAME>GSAT0203 (GALILEO 7)</OBJECT_NAME>
                    <OBJECT_ID>2015-017A</OBJECT_ID>
                    <CENTER_NAME>EARTH</CENTER_NAME>
                    <REF_FRAME>TEME</REF_FRAME>
                    <TIME_SYSTEM>UTC</TIME_SYSTEM>
                    <MEAN_ELEMENT_THEORY>SGP4</MEAN_ELEMENT_THEORY>
                </metadata>
                <data>
                    <meanElements>
                        <EPOCH>2024-08-12T05:28:13.010304</EPOCH>
                        <MEAN_MOTION>1.70476293</MEAN_MOTION>
                        <ECCENTRICITY>.0002858</ECCENTRICITY>
                        <INCLINATION>56.9232</INCLINATION>
                        <RA_OF_ASC_NODE>359.9466</RA_OF_ASC_NODE>
                        <ARG_OF_PERICENTER>233.4427</ARG_OF_PERICENTER>
                        <MEAN_ANOMALY>126.5368</MEAN_ANOMALY>
                    </meanElements>
                    <tleParameters>
                        <EPHEMERIS_TYPE>0</EPHEMERIS_TYPE>
                        <CLASSIFICATION_TYPE>U</CLASSIFICATION_TYPE>
                        <NORAD_CAT_ID>40544</NORAD_CAT_ID>
                        <ELEMENT_SET_NO>999</ELEMENT_SET_NO>
                        <REV_AT_EPOCH>5771</REV_AT_EPOCH>
                        <BSTAR>0</BSTAR>
                        <MEAN_MOTION_DOT>-.83E-6</MEAN_MOTION_DOT>
                        <MEAN_MOTION_DDOT>0</MEAN_MOTION_DDOT>
                    </tleParameters>
                </data>
            </segment>
        </body>
    </omm>
    
</ndm>